     3.04           N: GNSS NAV DATA    M: Mixed            RINEX VERSION / TYPE
RTKCONV demo5 b34k                      20250521 081537 UTC PGM / RUN BY / DATE 
format: RTCM 3                                              COMMENT             
log: D:\data\手机数据\20250521\MGEX23673a.rtcm              COMMENT             
                                                            END OF HEADER       
C13 2025 05 21 02 00 00 -.144453952089D-04 -.950439726921D-11  .000000000000D+00
      .600000000000D+01  .172218750000D+03  .106290141697D-08  .160216189314D+01
      .604940578341D-05  .529356114566D-02  .400422140956D-05  .649300256729D+04
      .266400000000D+06  .102911144495D-06  .289815775725D+01 -.712461769581D-07
      .104202532874D+01  .132578125000D+03 -.229322899950D+01 -.236438420038D-08
      .687171480593D-09  .000000000000D+00  .101100000000D+04  .000000000000D+00
      .200000000000D+01  .000000000000D+00 -.950000000000D-08  .280000000000D-08
      .288939000000D+06  .000000000000D+00
G16 2025 05 21 04 00 00  .201538205147D-04  .852651282912D-11  .000000000000D+00
      .630000000000D+02  .514687500000D+02  .461769234542D-08 -.159732034381D+01
      .271573662758D-05  .144467707723D-01  .682845711708D-05  .515373868752D+04
      .273600000000D+06  .279396772385D-06 -.927111693123D-01 -.409781932831D-07
      .959936145742D+00  .245875000000D+03  .885667515058D+00 -.801390523989D-08
      .110004582132D-09  .100000000000D+01  .236700000000D+04  .000000000000D+00
      .200000000000D+01  .000000000000D+00 -.102445483208D-07  .630000000000D+02
      .288953000000D+06  .400000000000D+01
R02 2025 05 21 02 15 00 -.322274863720D-04  .909494701773D-12  .266400000000D+06
     -.251899233398D+05  .587519645691D+00  .000000000000D+00  .000000000000D+00
      .671229980469D+03  .144194602966D+00 -.931322574615D-09 -.400000000000D+01
      .421282910156D+04  .352455520630D+01  .000000000000D+00  .000000000000D+00
C14 2025 05 21 02 00 00 -.400019343942D-03 -.431450430938D-10  .135525271561D-18
      .130000000000D+02 -.249218750000D+02  .385266047877D-08  .280697167857D+01
     -.118510797620D-05  .139547535218D-02  .412017107010D-05  .528263148880D+04
      .266400000000D+06 -.563450157642D-07 -.279305561183D+01  .628642737865D-07
      .981024248832D+00  .288796875000D+03 -.117392970163D+00 -.695100382292D-08
      .182150444440D-09  .000000000000D+00  .101100000000D+04  .000000000000D+00
      .200000000000D+01  .000000000000D+00  .720000000000D-08  .200000000000D-08
      .288939000000D+06  .120000000000D+02
G17 2025 05 21 04 00 00  .271660275757D-03 -.177351466846D-10  .000000000000D+00
      .920000000000D+02  .359375000000D+01  .444911389488D-08 -.258682814967D+01
      .219792127609D-06  .130518921651D-01  .682100653648D-05  .515368344498D+04
      .273600000000D+06  .160187482834D-06  .926674876025D+00  .128522515297D-06
      .963525814626D+00  .250125000000D+03 -.121473373161D+01 -.786389899153D-08
     -.380730144653D-09  .100000000000D+01  .236700000000D+04  .000000000000D+00
      .200000000000D+01  .000000000000D+00 -.111758708954D-07  .920000000000D+02
      .288953000000D+06  .400000000000D+01
R03 2025 05 21 02 15 00  .122699886560D-03  .000000000000D+00  .266400000000D+06
     -.198208193359D+05 -.183067321777D+01  .931322574615D-09  .000000000000D+00
      .863258593750D+04  .371466636658D+00  .000000000000D+00  .500000000000D+01
     -.135321098633D+05  .290253162384D+01  .186264514923D-08  .000000000000D+00
C16 2025 05 21 02 00 00 -.422796001658D-03 -.354445361950D-10  .000000000000D+00
      .100000000000D+01 -.328750000000D+02  .820391315448D-09 -.358566183447D+00
     -.139372423291D-05  .883330288343D-02  .275056809187D-04  .649360987473D+04
      .266400000000D+06  .321306288242D-07 -.121226063641D+01  .158790498972D-06
      .962126570056D+00 -.614765625000D+03 -.216532324254D+01 -.177935983176D-08
      .157149403046D-09  .000000000000D+00  .101100000000D+04  .000000000000D+00
      .200000000000D+01  .000000000000D+00 -.280000000000D-08  .460000000000D-08
      .288939000000D+06  .000000000000D+00
G18 2025 05 21 04 00 00 -.622533261776D-03  .511590769747D-11  .000000000000D+00
      .360000000000D+02  .154375000000D+02  .392230623694D-08  .167975576441D+01
      .873580574989D-06  .509222527035D-02  .101309269667D-04  .515369995308D+04
      .273600000000D+06 -.633299350739D-07  .193478104324D+01  .409781932831D-07
      .973494251063D+00  .189843750000D+03 -.295799214537D+01 -.786211320286D-08
     -.839320675361D-10  .100000000000D+01  .236700000000D+04  .000000000000D+00
      .200000000000D+01  .000000000000D+00 -.838190317154D-08  .548000000000D+03
      .288953000000D+06  .400000000000D+01
R04 2025 05 21 02 15 00  .292180106044D-03  .181898940355D-11  .266400000000D+06
     -.395375341797D+04 -.309873104095D+01  .186264514923D-08  .000000000000D+00
      .108781274414D+05  .362514495850D+00  .931322574615D-09  .600000000000D+01
     -.226995703125D+05  .711506843567D+00  .186264514923D-08  .000000000000D+00
C19 2025 05 21 02 00 00 -.954803428613D-03  .310329539843D-11  .000000000000D+00
      .100000000000D+01 -.422656250000D+02  .383730269620D-08 -.210746116205D+00
     -.204704701900D-05  .100334163290D-02  .392412766814D-05  .528262592125D+04
      .266400000000D+06 -.498257577419D-07 -.279060776075D+01 -.102445483208D-07
      .983624999724D+00  .293968750000D+03 -.641882780880D+00 -.700386316759D-08
      .141434462742D-09  .000000000000D+00  .101100000000D+04  .000000000000D+00
      .200000000000D+01  .000000000000D+00  .103000000000D-07  .103000000000D-07
      .288939000000D+06  .100000000000D+01
G19 2025 05 21 04 00 00  .630399212241D-03  .352429196937D-11  .000000000000D+00
      .790000000000D+02 -.221875000000D+01  .451983112625D-08 -.727450554858D+00
     -.171363353729D-06  .105501108337D-01  .700727105141D-05  .515362885094D+04
      .273600000000D+06 -.186264514923D-08  .970786097115D+00 -.270083546638D-06
      .962719752616D+00  .249812500000D+03  .277020599445D+01 -.814676791701D-08
     -.324656380384D-09  .100000000000D+01  .236700000000D+04  .000000000000D+00
      .200000000000D+01  .000000000000D+00 -.153668224812D-07  .790000000000D+02
      .288953000000D+06  .400000000000D+01
R05 2025 05 21 02 15 00  .150170177221D-03  .000000000000D+00  .266400000000D+06
      .140525249023D+05 -.271737670898D+01  .931322574615D-09  .000000000000D+00
      .772183496094D+04  .163146018982D+00  .186264514923D-08  .100000000000D+01
     -.198184614258D+05 -.186336231232D+01  .931322574615D-09  .000000000000D+00
C20 2025 05 21 02 00 00 -.843153684400D-03 -.313526982154D-12  .000000000000D+00
      .100000000000D+01 -.397812500000D+02  .383301680339D-08  .564348532296D-01
     -.186730176210D-05  .899866339751D-03  .421935692430D-05  .528262983894D+04
      .266400000000D+06 -.116415321827D-07 -.278997975927D+01 -.395812094212D-07
      .983610984969D+00  .289953125000D+03 -.181721359230D+00 -.694028909090D-08
      .134648465792D-09  .000000000000D+00  .101100000000D+04  .000000000000D+00
      .200000000000D+01  .000000000000D+00  .128000000000D-07  .128000000000D-07
      .288939000000D+06  .100000000000D+01
G20 2025 05 21 03 59 44  .364391133189D-03 -.227373675443D-12  .000000000000D+00
      .490000000000D+02  .405937500000D+02  .459947730098D-08  .190902156330D+01
      .216998159885D-05  .346863700543D-02  .604242086411D-05  .515377441216D+04
      .273584000000D+06 -.670552253723D-07  .278035526951D+01 -.838190317154D-07
      .958684344297D+00  .258562500000D+03 -.226276208910D+01 -.830606026646D-08
      .400730977768D-09  .100000000000D+01  .236700000000D+04  .000000000000D+00
      .200000000000D+01  .000000000000D+00 -.838190317154D-08  .490000000000D+02
      .288953000000D+06  .400000000000D+01
R06 2025 05 21 02 15 00 -.215334817767D-03 -.909494701773D-12  .266400000000D+06
      .252680834961D+05 -.293746948242D+00  .000000000000D+00  .000000000000D+00
     -.283714111328D+04 -.132279396057D+00  .000000000000D+00 -.400000000000D+01
     -.198684814453D+04 -.356362247467D+01 -.931322574615D-09  .000000000000D+00
C21 2025 05 21 02 00 00 -.917897094041D-03 -.353939100250D-11  .000000000000D+00
      .100000000000D+01 -.322968750000D+02  .384516016636D-08 -.207130115088D+01
     -.170944258571D-05  .847890740260D-03  .416813418269D-05  .528262832069D+04
      .266400000000D+06 -.484287738800D-07 -.278918371971D+01 -.158324837685D-07
      .982896191492D+00  .290546875000D+03 -.357099779233D+00 -.700386316759D-08
      .153220667970D-09  .000000000000D+00  .101100000000D+04  .000000000000D+00
      .200000000000D+01  .000000000000D+00  .115000000000D-07  .115000000000D-07
      .288939000000D+06  .100000000000D+01
G22 2025 05 21 04 00 00 -.103097874671D-03  .000000000000D+00  .000000000000D+00
      .300000000000D+01  .475312500000D+02  .472733976982D-08 -.207187523211D+01
      .246055424213D-05  .131203294732D-01  .689364969730D-05  .515365213013D+04
      .273600000000D+06 -.633299350739D-07 -.893940479181D-01  .316649675369D-06
      .959325269188D+00  .246906250000D+03 -.106266449738D+01 -.810783772399D-08
     -.271439877989D-10  .100000000000D+01  .236700000000D+04  .000000000000D+00
      .200000000000D+01  .000000000000D+00 -.111758708954D-07  .300000000000D+01
      .288953000000D+06  .400000000000D+01
R07 2025 05 21 02 15 00  .106203369796D-03  .000000000000D+00  .266400000000D+06
      .196689453125D+05  .184547138214D+01 -.931322574615D-09  .000000000000D+00
     -.868074414063D+04 -.366749763489D+00  .000000000000D+00  .500000000000D+01
      .137351694336D+05 -.288770294189D+01 -.186264514923D-08  .000000000000D+00
